{
"type": "FeatureCollection",
"name": "branches",
"crs": { "type": "name", "properties": { "name": "urn:ogc:def:crs:OGC:1.3:CRS84" } },
"features": [
{ "type": "Feature", "properties": { "BRANCH": "PGH TAFT", "RTA_ID": "JRTA1" }, "geometry": { "type": "Point", "coordinates": [ 120.98830357138084, 14.578437788000144 ] } },
{ "type": "Feature", "properties": { "BRANCH": "GEN T DE LEON", "RTA_ID": "JRTA2" }, "geometry": { "type": "Point", "coordinates": [ 121.000633876224853, 14.69105828800005 ] } },
{ "type": "Feature", "properties": { "BRANCH": "PASIG SIMBAHAN", "RTA_ID": "JRTA4" }, "geometry": { "type": "Point", "coordinates": [ 121.078547489553557, 14.559038426152853 ] } },
{ "type": "Feature", "properties": { "BRANCH": "GLOBAL", "RTA_ID": "JRTA12" }, "geometry": { "type": "Point", "coordinates": [ 121.049560201273692, 14.55165045852246 ] } },
{ "type": "Feature", "properties": { "BRANCH": "ALABANG JUNCTION", "RTA_ID": "JRTA15" }, "geometry": { "type": "Point", "coordinates": [ 121.042967377572097, 14.416313414421978 ] } },
{ "type": "Feature", "properties": { "BRANCH": "HOME DEPOT", "RTA_ID": "JRTA18" }, "geometry": { "type": "Point", "coordinates": [ 120.985749211566088, 14.534750664582248 ] } },
{ "type": "Feature", "properties": { "BRANCH": "EDSA ARAYAT", "RTA_ID": "JRTA20" }, "geometry": { "type": "Point", "coordinates": [ 121.044753177941715, 14.619171589655281 ] } },
{ "type": "Feature", "properties": { "BRANCH": "MAYSILO", "RTA_ID": "JRTA23" }, "geometry": { "type": "Point", "coordinates": [ 121.034110576986308, 14.578305803500314 ] } },
{ "type": "Feature", "properties": { "BRANCH": "BAYANI ROAD", "RTA_ID": "JRTA25" }, "geometry": { "type": "Point", "coordinates": [ 121.043135998741207, 14.526621156734421 ] } },
{ "type": "Feature", "properties": { "BRANCH": "CYBERONE", "RTA_ID": "JRTA26" }, "geometry": { "type": "Point", "coordinates": [ 121.033793602708897, 14.562424490000154 ] } },
{ "type": "Feature", "properties": { "BRANCH": "GUADALUPE EDSA", "RTA_ID": "JRTA28" }, "geometry": { "type": "Point", "coordinates": [ 121.046784249940302, 14.561954996500305 ] } },
{ "type": "Feature", "properties": { "BRANCH": "DMMA 1", "RTA_ID": "JRTA29" }, "geometry": { "type": "Point", "coordinates": [ 121.09312205212747, 14.679637379500178 ] } },
{ "type": "Feature", "properties": { "BRANCH": "ADUANA", "RTA_ID": "JRTA31" }, "geometry": { "type": "Point", "coordinates": [ 120.975062458789097, 14.589285429064887 ] } },
{ "type": "Feature", "properties": { "BRANCH": "ANONAS", "RTA_ID": "JRTA32" }, "geometry": { "type": "Point", "coordinates": [ 121.065665410516942, 14.628928092657475 ] } },
{ "type": "Feature", "properties": { "BRANCH": "BLUMENTRITT", "RTA_ID": "JRTA33" }, "geometry": { "type": "Point", "coordinates": [ 120.981651061639496, 14.62544050950001 ] } },
{ "type": "Feature", "properties": { "BRANCH": "BUSTILLOS", "RTA_ID": "JRTA34" }, "geometry": { "type": "Point", "coordinates": [ 120.992988187311653, 14.602511793855626 ] } },
{ "type": "Feature", "properties": { "BRANCH": "EAST AVE", "RTA_ID": "JRTA35" }, "geometry": { "type": "Point", "coordinates": [ 121.047513464909244, 14.640264320880817 ] } },
{ "type": "Feature", "properties": { "BRANCH": "HARBOUR SQUARE", "RTA_ID": "JRTA36" }, "geometry": { "type": "Point", "coordinates": [ 120.985507090408575, 14.557094127500136 ] } },
{ "type": "Feature", "properties": { "BRANCH": "KATIPUNAN", "RTA_ID": "JRTA37" }, "geometry": { "type": "Point", "coordinates": [ 121.072960744980037, 14.637950712858725 ] } },
{ "type": "Feature", "properties": { "BRANCH": "MALABON", "RTA_ID": "JRTA38" }, "geometry": { "type": "Point", "coordinates": [ 120.957622640227797, 14.660281746811506 ] } },
{ "type": "Feature", "properties": { "BRANCH": "MALINTA", "RTA_ID": "JRTA39" }, "geometry": { "type": "Point", "coordinates": [ 120.960641368376258, 14.696065245500023 ] } },
{ "type": "Feature", "properties": { "BRANCH": "MANHATTAN PARKWAY", "RTA_ID": "JRTA40" }, "geometry": { "type": "Point", "coordinates": [ 121.056074056113999, 14.622422400576539 ] } },
{ "type": "Feature", "properties": { "BRANCH": "MINDANAO PAG-ASA", "RTA_ID": "JRTA42" }, "geometry": { "type": "Point", "coordinates": [ 121.037888229156479, 14.663454935500141 ] } },
{ "type": "Feature", "properties": { "BRANCH": "EDSA CONGRESSIONAL", "RTA_ID": "JRTA43" }, "geometry": { "type": "Point", "coordinates": [ 121.023216545600349, 14.663995702244904 ] } },
{ "type": "Feature", "properties": { "BRANCH": "NBS", "RTA_ID": "JRTA44" }, "geometry": { "type": "Point", "coordinates": [ 121.0329887944348, 14.642117605907913 ] } },
{ "type": "Feature", "properties": { "BRANCH": "NOVA SQUARE", "RTA_ID": "JRTA45" }, "geometry": { "type": "Point", "coordinates": [ 121.035150462635499, 14.701556654000029 ] } },
{ "type": "Feature", "properties": { "BRANCH": "NOVA SUSANO", "RTA_ID": "JRTA46" }, "geometry": { "type": "Point", "coordinates": [ 121.041601836982636, 14.721355176773841 ] } },
{ "type": "Feature", "properties": { "BRANCH": "PACO", "RTA_ID": "JRTA48" }, "geometry": { "type": "Point", "coordinates": [ 120.994293364085394, 14.581400167697552 ] } },
{ "type": "Feature", "properties": { "BRANCH": "PADRE FAURA", "RTA_ID": "JRTA49" }, "geometry": { "type": "Point", "coordinates": [ 120.97975988221998, 14.578397410312505 ] } },
{ "type": "Feature", "properties": { "BRANCH": "PLAZA LEON TONDO", "RTA_ID": "JRTA50" }, "geometry": { "type": "Point", "coordinates": [ 120.964487728960876, 14.612657049500029 ] } },
{ "type": "Feature", "properties": { "BRANCH": "STA ANA", "RTA_ID": "JRTA52" }, "geometry": { "type": "Point", "coordinates": [ 121.01470538028795, 14.582304191056807 ] } },
{ "type": "Feature", "properties": { "BRANCH": "FAIRVIEW REGALADO", "RTA_ID": "JRTA53" }, "geometry": { "type": "Point", "coordinates": [ 121.062127068301777, 14.699687351000392 ] } },
{ "type": "Feature", "properties": { "BRANCH": "ROCES", "RTA_ID": "JRTA54" }, "geometry": { "type": "Point", "coordinates": [ 121.024832041182066, 14.630908501893515 ] } },
{ "type": "Feature", "properties": { "BRANCH": "SANGANDAAN", "RTA_ID": "JRTA55" }, "geometry": { "type": "Point", "coordinates": [ 120.975128894508543, 14.659369706610022 ] } },
{ "type": "Feature", "properties": { "BRANCH": "STA QUITERIA", "RTA_ID": "JRTA57" }, "geometry": { "type": "Point", "coordinates": [ 121.014553479077051, 14.679613123071391 ] } },
{ "type": "Feature", "properties": { "BRANCH": "STO CRISTO", "RTA_ID": "JRTA58" }, "geometry": { "type": "Point", "coordinates": [ 120.962083848329499, 14.601195933632113 ] } },
{ "type": "Feature", "properties": { "BRANCH": "TAYUMAN", "RTA_ID": "JRTA59" }, "geometry": { "type": "Point", "coordinates": [ 120.981419885696852, 14.616946265960166 ] } },
{ "type": "Feature", "properties": { "BRANCH": "TS COMMONWEALTH", "RTA_ID": "JRTA61" }, "geometry": { "type": "Point", "coordinates": [ 121.061975398680033, 14.664921837586775 ] } },
{ "type": "Feature", "properties": { "BRANCH": "ROCK PLAZA", "RTA_ID": "JRTA62" }, "geometry": { "type": "Point", "coordinates": [ 121.035265434770352, 14.678515285000202 ] } },
{ "type": "Feature", "properties": { "BRANCH": "UP PHILCOA", "RTA_ID": "JRTA64" }, "geometry": { "type": "Point", "coordinates": [ 121.058007589047264, 14.64978127100008 ] } },
{ "type": "Feature", "properties": { "BRANCH": "UST DAPITAN", "RTA_ID": "JRTA65" }, "geometry": { "type": "Point", "coordinates": [ 120.991306735311056, 14.612804949873947 ] } },
{ "type": "Feature", "properties": { "BRANCH": "VALENZUELA", "RTA_ID": "JRTA66" }, "geometry": { "type": "Point", "coordinates": [ 120.985321501768098, 14.677441027094687 ] } },
{ "type": "Feature", "properties": { "BRANCH": "VITO CRUZ", "RTA_ID": "JRTA67" }, "geometry": { "type": "Point", "coordinates": [ 120.994254853250453, 14.563719499500195 ] } },
{ "type": "Feature", "properties": { "BRANCH": "WEST AVE", "RTA_ID": "JRTA68" }, "geometry": { "type": "Point", "coordinates": [ 121.025637166356788, 14.651233808065882 ] } },
{ "type": "Feature", "properties": { "BRANCH": "ALABANG MADRIGAL", "RTA_ID": "JRTA70" }, "geometry": { "type": "Point", "coordinates": [ 121.028989017631176, 14.424669758468269 ] } },
{ "type": "Feature", "properties": { "BRANCH": "BAYMART", "RTA_ID": "JRTA72" }, "geometry": { "type": "Point", "coordinates": [ 121.056056801395314, 14.495198437500591 ] } },
{ "type": "Feature", "properties": { "BRANCH": "BETTER LIVING", "RTA_ID": "JRTA73" }, "geometry": { "type": "Point", "coordinates": [ 121.032106605317239, 14.48198842673898 ] } },
{ "type": "Feature", "properties": { "BRANCH": "METROMART BONI", "RTA_ID": "JRTA75" }, "geometry": { "type": "Point", "coordinates": [ 121.044197378114404, 14.575611427943954 ] } },
{ "type": "Feature", "properties": { "BRANCH": "FTI", "RTA_ID": "JRTA77" }, "geometry": { "type": "Point", "coordinates": [ 121.047736136277933, 14.508308518000206 ] } },
{ "type": "Feature", "properties": { "BRANCH": "KALENTONG", "RTA_ID": "JRTA79" }, "geometry": { "type": "Point", "coordinates": [ 121.025057775991797, 14.591533316631256 ] } },
{ "type": "Feature", "properties": { "BRANCH": "LIBERTY COMMERCIAL", "RTA_ID": "JRTA80" }, "geometry": { "type": "Point", "coordinates": [ 120.999986142722577, 14.545107394474286 ] } },
{ "type": "Feature", "properties": { "BRANCH": "MAKATI AVENUE", "RTA_ID": "JRTA81" }, "geometry": { "type": "Point", "coordinates": [ 121.024885507393677, 14.563695040500107 ] } },
{ "type": "Feature", "properties": { "BRANCH": "MARIKINA BAYAN", "RTA_ID": "JRTA82" }, "geometry": { "type": "Point", "coordinates": [ 121.093668341356192, 14.63469690354475 ] } },
{ "type": "Feature", "properties": { "BRANCH": "MARIKINA HEIGHTS", "RTA_ID": "JRTA83" }, "geometry": { "type": "Point", "coordinates": [ 121.116703644839731, 14.650272244500201 ] } },
{ "type": "Feature", "properties": { "BRANCH": "WALTERMART MAKATI", "RTA_ID": "JRTA84" }, "geometry": { "type": "Point", "coordinates": [ 121.01079762567376, 14.549078861171665 ] } },
{ "type": "Feature", "properties": { "BRANCH": "MUNTINLUPA BAYAN", "RTA_ID": "JRTA85" }, "geometry": { "type": "Point", "coordinates": [ 121.044146129964872, 14.383616677908321 ] } },
{ "type": "Feature", "properties": { "BRANCH": "NEW LAS PINAS", "RTA_ID": "JRTA86" }, "geometry": { "type": "Point", "coordinates": [ 120.977840455785852, 14.446779232268938 ] } },
{ "type": "Feature", "properties": { "BRANCH": "PILAR", "RTA_ID": "JRTA87" }, "geometry": { "type": "Point", "coordinates": [ 121.012407073212259, 14.430996850500122 ] } },
{ "type": "Feature", "properties": { "BRANCH": "QUIRINO MEDINA", "RTA_ID": "JRTA88" }, "geometry": { "type": "Point", "coordinates": [ 120.993089125008481, 14.490155475500046 ] } },
{ "type": "Feature", "properties": { "BRANCH": "RUFINO", "RTA_ID": "JRTA89" }, "geometry": { "type": "Point", "coordinates": [ 121.019385856407467, 14.557187005669533 ] } },
{ "type": "Feature", "properties": { "BRANCH": "PARANAQUE CITY HALL", "RTA_ID": "JRTA94" }, "geometry": { "type": "Point", "coordinates": [ 121.018631172826247, 14.467027102436475 ] } },
{ "type": "Feature", "properties": { "BRANCH": "MALANDAY", "RTA_ID": "JRTA95" }, "geometry": { "type": "Point", "coordinates": [ 120.958163370580451, 14.716299858961378 ] } },
{ "type": "Feature", "properties": { "BRANCH": "QUINTIN PAREDES", "RTA_ID": "JRTA99" }, "geometry": { "type": "Point", "coordinates": [ 120.975418801352291, 14.59842739770761 ] } },
{ "type": "Feature", "properties": { "BRANCH": "EVA COM", "RTA_ID": "JRTA111" }, "geometry": { "type": "Point", "coordinates": [ 120.99657480187615, 14.474294767444718 ] } },
{ "type": "Feature", "properties": { "BRANCH": "BGC TRIANGLE", "RTA_ID": "JRTA128" }, "geometry": { "type": "Point", "coordinates": [ 121.05607270226885, 14.55623023630622 ] } },
{ "type": "Feature", "properties": { "BRANCH": "NEW MCU", "RTA_ID": "JRTA134" }, "geometry": { "type": "Point", "coordinates": [ 120.988676255002943, 14.657387739875929 ] } },
{ "type": "Feature", "properties": { "BRANCH": "AURORA GILMORE", "RTA_ID": "JRTA150" }, "geometry": { "type": "Point", "coordinates": [ 121.03027334422822, 14.616233617392794 ] } },
{ "type": "Feature", "properties": { "BRANCH": "GREENMEADOWS", "RTA_ID": "JRTA153" }, "geometry": { "type": "Point", "coordinates": [ 121.075575531729783, 14.598790996458803 ] } },
{ "type": "Feature", "properties": { "BRANCH": "PHIL FIRST AYALA", "RTA_ID": "JRTA157" }, "geometry": { "type": "Point", "coordinates": [ 121.024905856721091, 14.551237039479389 ] } },
{ "type": "Feature", "properties": { "BRANCH": "MASANGKAY", "RTA_ID": "JRTA160" }, "geometry": { "type": "Point", "coordinates": [ 120.978438157829771, 14.608275873935384 ] } },
{ "type": "Feature", "properties": { "BRANCH": "LAGRO", "RTA_ID": "JRTA169" }, "geometry": { "type": "Point", "coordinates": [ 121.066692442385317, 14.731934417500526 ] } },
{ "type": "Feature", "properties": { "BRANCH": "METROPOLI", "RTA_ID": "JRTA175" }, "geometry": { "type": "Point", "coordinates": [ 121.084053846991324, 14.604248222160834 ] } },
{ "type": "Feature", "properties": { "BRANCH": "NAVOTAS", "RTA_ID": "JRTA178" }, "geometry": { "type": "Point", "coordinates": [ 120.946972051022442, 14.657442168348211 ] } },
{ "type": "Feature", "properties": { "BRANCH": "PUREZA", "RTA_ID": "JRTA183" }, "geometry": { "type": "Point", "coordinates": [ 121.005474339604689, 14.600361675411023 ] } },
{ "type": "Feature", "properties": { "BRANCH": "JEEPNEY MARKET", "RTA_ID": "JRTA185" }, "geometry": { "type": "Point", "coordinates": [ 120.976868906123229, 14.689285749070649 ] } },
{ "type": "Feature", "properties": { "BRANCH": "PATEROS", "RTA_ID": "JRTA196" }, "geometry": { "type": "Point", "coordinates": [ 121.06999521596741, 14.544551195890051 ] } },
{ "type": "Feature", "properties": { "BRANCH": "SFDM", "RTA_ID": "JRTA202" }, "geometry": { "type": "Point", "coordinates": [ 121.010709252553042, 14.639009588500329 ] } },
{ "type": "Feature", "properties": { "BRANCH": "MAYON", "RTA_ID": "JRTA203" }, "geometry": { "type": "Point", "coordinates": [ 120.997006202573317, 14.631588331907324 ] } },
{ "type": "Feature", "properties": { "BRANCH": "ABAD SANTOS", "RTA_ID": "JRTA206" }, "geometry": { "type": "Point", "coordinates": [ 120.975329573633275, 14.630491117770987 ] } },
{ "type": "Feature", "properties": { "BRANCH": "MAKATI CINEMA SQUARE", "RTA_ID": "JRTA210" }, "geometry": { "type": "Point", "coordinates": [ 121.01466330348677, 14.55387232100037 ] } },
{ "type": "Feature", "properties": { "BRANCH": "GREENHILLS", "RTA_ID": "JRTA213" }, "geometry": { "type": "Point", "coordinates": [ 121.042665509220143, 14.597734014000196 ] } },
{ "type": "Feature", "properties": { "BRANCH": "PETRON BONNY SERRANO", "RTA_ID": "JRTA214" }, "geometry": { "type": "Point", "coordinates": [ 121.049424205669069, 14.610163437000097 ] } },
{ "type": "Feature", "properties": { "BRANCH": "PIONEER", "RTA_ID": "JRTA219" }, "geometry": { "type": "Point", "coordinates": [ 121.059333218479338, 14.570407406985083 ] } },
{ "type": "Feature", "properties": { "BRANCH": "EGI RUFINO", "RTA_ID": "JRTA226" }, "geometry": { "type": "Point", "coordinates": [ 120.996121544381651, 14.554385873101353 ] } },
{ "type": "Feature", "properties": { "BRANCH": "MUNOZ", "RTA_ID": "JRTA229" }, "geometry": { "type": "Point", "coordinates": [ 121.015341596562308, 14.655569805500306 ] } },
{ "type": "Feature", "properties": { "BRANCH": "CASIMIRO", "RTA_ID": "JRTA231" }, "geometry": { "type": "Point", "coordinates": [ 120.993942553125464, 14.445694237458326 ] } },
{ "type": "Feature", "properties": { "BRANCH": "ROCKWELL", "RTA_ID": "JRTA233" }, "geometry": { "type": "Point", "coordinates": [ 121.065816421479155, 14.586623982009144 ] } },
{ "type": "Feature", "properties": { "BRANCH": "C5 J. VARGAS", "RTA_ID": "JRTA235" }, "geometry": { "type": "Point", "coordinates": [ 121.074347403887359, 14.58411125363898 ] } },
{ "type": "Feature", "properties": { "BRANCH": "ONE MERCEDES PLAZA", "RTA_ID": "JRTA236" }, "geometry": { "type": "Point", "coordinates": [ 121.088844615540296, 14.574824330605708 ] } },
{ "type": "Feature", "properties": { "BRANCH": "xxxFAIRVIEW REGALADO", "RTA_ID": "JRTA244" }, "geometry": { "type": "Point", "coordinates": [ 121.063582959650404, 14.715457215000384 ] } },
{ "type": "Feature", "properties": { "BRANCH": "SHELL MAGALLANES", "RTA_ID": "JRTA252" }, "geometry": { "type": "Point", "coordinates": [ 121.01633073396701, 14.535020988047336 ] } },
{ "type": "Feature", "properties": { "BRANCH": "TRABAJO", "RTA_ID": "JRTA60" }, "geometry": { "type": "Point", "coordinates": [ 120.998523152794448, 14.609654773924944 ] } },
{ "type": "Feature", "properties": { "BRANCH": "STA MESA", "RTA_ID": "JRTA141" }, "geometry": { "type": "Point", "coordinates": [ 121.015796029043116, 14.603093100000194 ] } },
{ "type": "Feature", "properties": { "BRANCH": "VENICE GRAND CANAL MALL", "RTA_ID": "JRTA96" }, "geometry": { "type": "Point", "coordinates": [ 121.050378932646566, 14.534043368500335 ] } },
{ "type": "Feature", "properties": { "BRANCH": "SHELL C5", "RTA_ID": "JRTA251" }, "geometry": { "type": "Point", "coordinates": [ 121.056611939453447, 14.540210564917771 ] } },
{ "type": "Feature", "properties": { "BRANCH": "TYCOON PEARL DRIVE", "RTA_ID": "JRTA110" }, "geometry": { "type": "Point", "coordinates": [ 121.060882594846049, 14.58000991900002 ] } },
{ "type": "Feature", "properties": { "BRANCH": "TAGUIG BAYAN", "RTA_ID": "JRTA240" }, "geometry": { "type": "Point", "coordinates": [ 121.077154271488723, 14.525295400249718 ] } },
{ "type": "Feature", "properties": { "BRANCH": "M. CONCEPCION", "RTA_ID": "JRTA239" }, "geometry": { "type": "Point", "coordinates": [ 121.081220162166545, 14.549645070532478 ] } },
{ "type": "Feature", "properties": { "BRANCH": "STRATA 2000", "RTA_ID": "JRTA267" }, "geometry": { "type": "Point", "coordinates": [ 121.06248085039087, 14.587903428500084 ] } },
{ "type": "Feature", "properties": { "BRANCH": "GATE 3", "RTA_ID": "JRTA171" }, "geometry": { "type": "Point", "coordinates": [ 121.028765379903092, 14.521565251500505 ] } },
{ "type": "Feature", "properties": { "BRANCH": "BF HOMES", "RTA_ID": "JRTA257" }, "geometry": { "type": "Point", "coordinates": [ 121.025689434667086, 14.446888527500647 ] } },
{ "type": "Feature", "properties": { "BRANCH": "SHOPWISE SUCAT", "RTA_ID": "JRTA93" }, "geometry": { "type": "Point", "coordinates": [ 121.034769758443161, 14.455727857493969 ] } },
{ "type": "Feature", "properties": { "BRANCH": "AMANG RODRIGUEZ", "RTA_ID": "JRTA71" }, "geometry": { "type": "Point", "coordinates": [ 121.097344235692802, 14.614033432735994 ] } },
{ "type": "Feature", "properties": { "BRANCH": "ZAPOTE", "RTA_ID": "JRTA92" }, "geometry": { "type": "Point", "coordinates": [ 120.97163722828715, 14.46220909750005 ] } },
{ "type": "Feature", "properties": { "BRANCH": "ST. FRANCIS", "RTA_ID": "JRTA76" }, "geometry": { "type": "Point", "coordinates": [ 121.057968955191427, 14.586110017764184 ] } },
{ "type": "Feature", "properties": { "BRANCH": "ORTIGAS DE CASTRO", "RTA_ID": "JRTA19" }, "geometry": { "type": "Point", "coordinates": [ 121.099830396860611, 14.588882061437658 ] } },
{ "type": "Feature", "properties": { "BRANCH": "WILSON", "RTA_ID": "JRTA24" }, "geometry": { "type": "Point", "coordinates": [ 121.030390907230128, 14.602578679500226 ] } },
{ "type": "Feature", "properties": { "BRANCH": "PASIG ROTUNDA", "RTA_ID": "JRTA237" }, "geometry": { "type": "Point", "coordinates": [ 121.073374813928737, 14.567647392500504 ] } },
{ "type": "Feature", "properties": { "BRANCH": "QUIRINO BACLARAN", "RTA_ID": "JRTA162" }, "geometry": { "type": "Point", "coordinates": [ 120.997267678463942, 14.533574623500272 ] } },
{ "type": "Feature", "properties": { "BRANCH": "EXPORT BANK BUENDIA", "RTA_ID": "JRTA211" }, "geometry": { "type": "Point", "coordinates": [ 121.011654181605024, 14.569219212913396 ] } },
{ "type": "Feature", "properties": { "BRANCH": "PRC", "RTA_ID": "JRTA90" }, "geometry": { "type": "Point", "coordinates": [ 121.024652656813458, 14.572199582712386 ] } }
]
}
